LUCH-5A                 
1 37951U 11074B   26062.83352980 -.00000057  00000+0  00000+0 0  9993
2 37951   8.4858  75.3546 0004005 243.8626 309.5287  1.00275356 51997
NIGCOMSAT 1R            
1 38014U 11077A   26063.79611737  .00000134  00000+0  00000+0 0  9996
2 38014   0.0663 253.3973 0002725  76.8529 161.4280  1.00278089 51911
WGS F4 (USA 233)        
1 38070U 12003A   26063.34142178 -.00000226  00000+0  00000+0 0  9990
2 38070   0.0100 143.5954 0000745 131.4845  98.2769  1.00271607 43095
SES-4                   
1 38087U 12007A   26063.44766875 -.00000180  00000+0  00000+0 0  9998
2 38087   0.0364  64.5985 0002464 288.7781 307.9700  1.00269941 51177
BEIDOU-2 G5             
1 38091U 12008A   26063.10233397  .00000045  00000+0  00000+0 0  9994
2 38091   3.3118  70.3139 0014093 250.3269 296.8388  1.00276264 51318
INTELSAT 22 (IS-22)     
1 38098U 12011A   26063.65210669 -.00000070  00000+0  00000+0 0  9991
2 38098   0.0206 218.9509 0001592 146.6941 103.6211  1.00273685  6147
COSMOS 2479             
1 38101U 12012A   26063.73840656  .00000088  00000+0  00000+0 0  9999
2 38101   8.6103  57.3758 0007032 242.5011 142.7171  1.00339696 51045
SL-12 R/B(2)            
1 38104U 12012D   26063.12402755  .00000104  00000+0  00000+0 0  9998
2 38104   8.5969  57.5920 0012690 296.8246  45.4024  1.00323570 51004
APSTAR-7                
1 38107U 12013A   26063.86141104 -.00000111  00000+0  00000+0 0  9990
2 38107   0.0095 186.3436 0002327 159.6428 203.2044  1.00269655 50762
YAHSAT 1B               
1 38245U 12016A   26063.29905912  .00000115  00000+0  00000+0 0  9991
2 38245   0.0830  92.1361 0003261 255.3455 329.8111  1.00272666 44551
AEHF-2 (USA 235)        
1 38254U 12019A   26063.38794803 -.00000143  00000+0  00000+0 0  9991
2 38254   6.4070  58.2484 0003157 275.7071 311.3335  1.00273406  5936
JCSAT-13                
1 38331U 12023A   26063.74211444 -.00000367  00000+0  00000+0 0  9995
2 38331   0.0351 266.2360 0002229 121.6332 165.7766  1.00272411 50491
VINASAT-2               
1 38332U 12023B   26063.73100142 -.00000340  00000+0  00000+0 0  9998
2 38332   0.0516 302.7079 0002915  60.6646 194.0813  1.00270133 45615
NIMIQ 6                 
1 38342U 12026A   26063.30600315 -.00000185  00000+0  00000+0 0  9999
2 38342   0.0556 279.8002 0002623  59.4407 201.8624  1.00270970 49369
ZHONGXING-2A            
1 38352U 12028A   26063.91266672 -.00000302  00000+0  00000+0 0  9994
2 38352   1.1849  85.3571 0001230 233.7036 270.4056  1.00272613 50253
INTELSAT 19 (IS-19)     
1 38356U 12030A   26063.61433802  .00000000  00000+0  00000+0 0  9993
2 38356   0.0251 148.6726 0003158 213.0614 187.8067  1.00270205 49404
ECHOSTAR 17             
1 38551U 12035A   26063.35669706 -.00000087  00000+0  00000+0 0  9996
2 38551   0.0204 131.6502 0002015 212.8261 198.9285  1.00272202 50012
