[{"OBJECT_NAME":"LUCH-5A","OBJECT_ID":"2011-074B","EPOCH":"2026-03-03T20:00:16.974720","MEAN_MOTION":1.00275356,"ECCENTRICITY":0.00040051,"INCLINATION":8.4858,"RA_OF_ASC_NODE":75.3546,"ARG_OF_PERICENTER":243.8626,"MEAN_ANOMALY":309.5287,"EPHEMERIS_TYPE":0,"CLASSIFICATION_TYPE":"U","NORAD_CAT_ID":37951,"ELEMENT_SET_NO":999,"REV_AT_EPOCH":5199,"BSTAR":0,"MEAN_MOTION_DOT":-5.7e-7,"MEAN_MOTION_DDOT":0},{"OBJECT_NAME":"NIGCOMSAT 1R","OBJECT_ID":"2011-077A","EPOCH":"2026-03-04T19:06:24.540768","MEAN_MOTION":1.00278089,"ECCENTRICITY":0.0002725,"INCLINATION":0.0663,"RA_OF_ASC_NODE":253.3973,"ARG_OF_PERICENTER":76.8529,"MEAN_ANOMALY":161.428,"EPHEMERIS_TYPE":0,"CLASSIFICATION_TYPE":"U","NORAD_CAT_ID":38014,"ELEMENT_SET_NO":999,"REV_AT_EPOCH":5191,"BSTAR":0,"MEAN_MOTION_DOT":1.34e-6,"MEAN_MOTION_DDOT":0},{"OBJECT_NAME":"WGS F4 (USA 233)","OBJECT_ID":"2012-003A","EPOCH":"2026-03-04T08:11:38.841792","MEAN_MOTION":1.00271607,"ECCENTRICITY":7.459e-5,"INCLINATION":0.01,"RA_OF_ASC_NODE":143.5954,"ARG_OF_PERICENTER":131.4845,"MEAN_ANOMALY":98.2769,"EPHEMERIS_TYPE":0,"CLASSIFICATION_TYPE":"U","NORAD_CAT_ID":38070,"ELEMENT_SET_NO":999,"REV_AT_EPOCH":4309,"BSTAR":0,"MEAN_MOTION_DOT":-2.26e-6,"MEAN_MOTION_DDOT":0},{"OBJECT_NAME":"SES-4","OBJECT_ID":"2012-007A","EPOCH":"2026-03-04T10:44:38.580000","MEAN_MOTION":1.00269941,"ECCENTRICITY":0.0002464,"INCLINATION":0.0364,"RA_OF_ASC_NODE":64.5985,"ARG_OF_PERICENTER":288.7781,"MEAN_ANOMALY":307.97,"EPHEMERIS_TYPE":0,"CLASSIFICATION_TYPE":"U","NORAD_CAT_ID":38087,"ELEMENT_SET_NO":999,"REV_AT_EPOCH":5117,"BSTAR":0,"MEAN_MOTION_DOT":-1.8e-6,"MEAN_MOTION_DDOT":0},{"OBJECT_NAME":"BEIDOU-2 G5","OBJECT_ID":"2012-008A","EPOCH":"2026-03-04T02:27:21.655008","MEAN_MOTION":1.00276264,"ECCENTRICITY":0.00140936,"INCLINATION":3.3118,"RA_OF_ASC_NODE":70.3139,"ARG_OF_PERICENTER":250.3269,"MEAN_ANOMALY":296.8388,"EPHEMERIS_TYPE":0,"CLASSIFICATION_TYPE":"U","NORAD_CAT_ID":38091,"ELEMENT_SET_NO":999,"REV_AT_EPOCH":5131,"BSTAR":0,"MEAN_MOTION_DOT":4.5e-7,"MEAN_MOTION_DDOT":0},{"OBJECT_NAME":"INTELSAT 22 (IS-22)","OBJECT_ID":"2012-011A","EPOCH":"2026-03-04T15:39:02.018016","MEAN_MOTION":1.00273685,"ECCENTRICITY":0.0001592,"INCLINATION":0.0206,"RA_OF_ASC_NODE":218.9509,"ARG_OF_PERICENTER":146.6941,"MEAN_ANOMALY":103.6211,"EPHEMERIS_TYPE":0,"CLASSIFICATION_TYPE":"U","NORAD_CAT_ID":38098,"ELEMENT_SET_NO":999,"REV_AT_EPOCH":614,"BSTAR":0,"MEAN_MOTION_DOT":-7.0e-7,"MEAN_MOTION_DDOT":0},{"OBJECT_NAME":"COSMOS 2479","OBJECT_ID":"2012-012A","EPOCH":"2026-03-04T17:43:18.326784","MEAN_MOTION":1.00339696,"ECCENTRICITY":0.0007032,"INCLINATION":8.6103,"RA_OF_ASC_NODE":57.3758,"ARG_OF_PERICENTER":242.5011,"MEAN_ANOMALY":142.7171,"EPHEMERIS_TYPE":0,"CLASSIFICATION_TYPE":"U","NORAD_CAT_ID":38101,"ELEMENT_SET_NO":999,"REV_AT_EPOCH":5104,"BSTAR":0,"MEAN_MOTION_DOT":8.8e-7,"MEAN_MOTION_DDOT":0},{"OBJECT_NAME":"SL-12 R/B(2)","OBJECT_ID":"2012-012D","EPOCH":"2026-03-04T02:58:35.980320","MEAN_MOTION":1.0032357,"ECCENTRICITY":0.00126908,"INCLINATION":8.5969,"RA_OF_ASC_NODE":57.592,"ARG_OF_PERICENTER":296.8246,"MEAN_ANOMALY":45.4024,"EPHEMERIS_TYPE":0,"CLASSIFICATION_TYPE":"U","NORAD_CAT_ID":38104,"ELEMENT_SET_NO":999,"REV_AT_EPOCH":5100,"BSTAR":0,"MEAN_MOTION_DOT":1.04e-6,"MEAN_MOTION_DDOT":0},{"OBJECT_NAME":"APSTAR-7","OBJECT_ID":"2012-013A","EPOCH":"2026-03-04T20:40:25.913856","MEAN_MOTION":1.00269655,"ECCENTRICITY":0.0002327,"INCLINATION":0.0095,"RA_OF_ASC_NODE":186.3436,"ARG_OF_PERICENTER":159.6428,"MEAN_ANOMALY":203.2044,"EPHEMERIS_TYPE":0,"CLASSIFICATION_TYPE":"U","NORAD_CAT_ID":38107,"ELEMENT_SET_NO":999,"REV_AT_EPOCH":5076,"BSTAR":0,"MEAN_MOTION_DOT":-1.11e-6,"MEAN_MOTION_DDOT":0},{"OBJECT_NAME":"YAHSAT 1B","OBJECT_ID":"2012-016A","EPOCH":"2026-03-04T07:10:38.707968","MEAN_MOTION":1.00272666,"ECCENTRICITY":0.00032616,"INCLINATION":0.083,"RA_OF_ASC_NODE":92.1361,"ARG_OF_PERICENTER":255.3455,"MEAN_ANOMALY":329.8111,"EPHEMERIS_TYPE":0,"CLASSIFICATION_TYPE":"U","NORAD_CAT_ID":38245,"ELEMENT_SET_NO":999,"REV_AT_EPOCH":4455,"BSTAR":0,"MEAN_MOTION_DOT":1.15e-6,"MEAN_MOTION_DDOT":0},{"OBJECT_NAME":"AEHF-2 (USA 235)","OBJECT_ID":"2012-019A","EPOCH":"2026-03-04T09:18:38.709792","MEAN_MOTION":1.00273406,"ECCENTRICITY":0.0003157,"INCLINATION":6.407,"RA_OF_ASC_NODE":58.2484,"ARG_OF_PERICENTER":275.7071,"MEAN_ANOMALY":311.3335,"EPHEMERIS_TYPE":0,"CLASSIFICATION_TYPE":"U","NORAD_CAT_ID":38254,"ELEMENT_SET_NO":999,"REV_AT_EPOCH":593,"BSTAR":0,"MEAN_MOTION_DOT":-1.43e-6,"MEAN_MOTION_DDOT":0},{"OBJECT_NAME":"JCSAT-13","OBJECT_ID":"2012-023A","EPOCH":"2026-03-04T17:48:38.687616","MEAN_MOTION":1.00272411,"ECCENTRICITY":0.0002229,"INCLINATION":0.0351,"RA_OF_ASC_NODE":266.236,"ARG_OF_PERICENTER":121.6332,"MEAN_ANOMALY":165.7766,"EPHEMERIS_TYPE":0,"CLASSIFICATION_TYPE":"U","NORAD_CAT_ID":38331,"ELEMENT_SET_NO":999,"REV_AT_EPOCH":5049,"BSTAR":0,"MEAN_MOTION_DOT":-3.67e-6,"MEAN_MOTION_DDOT":0},{"OBJECT_NAME":"VINASAT-2","OBJECT_ID":"2012-023B","EPOCH":"2026-03-04T17:32:38.522688","MEAN_MOTION":1.00270133,"ECCENTRICITY":0.0002915,"INCLINATION":0.0516,"RA_OF_ASC_NODE":302.7079,"ARG_OF_PERICENTER":60.6646,"MEAN_ANOMALY":194.0813,"EPHEMERIS_TYPE":0,"CLASSIFICATION_TYPE":"U","NORAD_CAT_ID":38332,"ELEMENT_SET_NO":999,"REV_AT_EPOCH":4561,"BSTAR":0,"MEAN_MOTION_DOT":-3.4e-6,"MEAN_MOTION_DDOT":0},{"OBJECT_NAME":"NIMIQ 6","OBJECT_ID":"2012-026A","EPOCH":"2026-03-04T07:20:38.672160","MEAN_MOTION":1.0027097,"ECCENTRICITY":0.00026237,"INCLINATION":0.0556,"RA_OF_ASC_NODE":279.8002,"ARG_OF_PERICENTER":59.4407,"MEAN_ANOMALY":201.8624,"EPHEMERIS_TYPE":0,"CLASSIFICATION_TYPE":"U","NORAD_CAT_ID":38342,"ELEMENT_SET_NO":999,"REV_AT_EPOCH":4936,"BSTAR":0,"MEAN_MOTION_DOT":-1.85e-6,"MEAN_MOTION_DDOT":0},{"OBJECT_NAME":"ZHONGXING-2A","OBJECT_ID":"2012-028A","EPOCH":"2026-03-04T21:54:14.404608","MEAN_MOTION":1.00272613,"ECCENTRICITY":0.000123,"INCLINATION":1.1849,"RA_OF_ASC_NODE":85.3571,"ARG_OF_PERICENTER":233.7036,"MEAN_ANOMALY":270.4056,"EPHEMERIS_TYPE":0,"CLASSIFICATION_TYPE":"U","NORAD_CAT_ID":38352,"ELEMENT_SET_NO":999,"REV_AT_EPOCH":5025,"BSTAR":0,"MEAN_MOTION_DOT":-3.02e-6,"MEAN_MOTION_DDOT":0},{"OBJECT_NAME":"INTELSAT 19 (IS-19)","OBJECT_ID":"2012-030A","EPOCH":"2026-03-04T14:44:38.804928","MEAN_MOTION":1.00270205,"ECCENTRICITY":0.0003158,"INCLINATION":0.0251,"RA_OF_ASC_NODE":148.6726,"ARG_OF_PERICENTER":213.0614,"MEAN_ANOMALY":187.8067,"EPHEMERIS_TYPE":0,"CLASSIFICATION_TYPE":"U","NORAD_CAT_ID":38356,"ELEMENT_SET_NO":999,"REV_AT_EPOCH":4940,"BSTAR":0,"MEAN_MOTION_DOT":0,"MEAN_MOTION_DDOT":0},{"OBJECT_NAME":"ECHOSTAR 17","OBJECT_ID":"2012-035A","EPOCH":"2026-03-04T08:33:38.625984","MEAN_MOTION":1.00272202,"ECCENTRICITY":0.00020155,"INCLINATION":0.0204,"RA_OF_ASC_NODE":131.6502,"ARG_OF_PERICENTER":212.8261,"MEAN_ANOMALY":198.9285,"EPHEMERIS_TYPE":0,"CLASSIFICATION_TYPE":"U","NORAD_CAT_ID":38551,"ELEMENT_SET_NO":999,"REV_AT_EPOCH":5001,"BSTAR":0,"MEAN_MOTION_DOT":-8.7e-7,"MEAN_MOTION_DDOT":0}]
